<?xml version="1.0" encoding="UTF-8"?>
<ndm xmlns:xsi="http://www.w3.org/2001/XMLSchema-instance" xsi:noNamespaceSchemaLocation="https://sanaregistry.org/r/ndmxml_unqualified/ndmxml-2.0.0-master-2.0.xsd">
<omm id="CCSDS_OMM_VERS" version="2.0">
<header><CREATION_DATE/><ORIGINATOR/></header><body><segment><metadata><OBJECT_NAME>KUIPER-00016</OBJECT_NAME><OBJECT_ID>2025-088J</OBJECT_ID><CENTER_NAME>EARTH</CENTER_NAME><REF_FRAME>TEME</REF_FRAME><TIME_SYSTEM>UTC</TIME_SYSTEM><MEAN_ELEMENT_THEORY>SGP4</MEAN_ELEMENT_THEORY></metadata><data><meanElements><EPOCH>2025-07-28T18:20:46.855680</EPOCH><MEAN_MOTION>15.12267091</MEAN_MOTION><ECCENTRICITY>.001087</ECCENTRICITY><INCLINATION>51.8847</INCLINATION><RA_OF_ASC_NODE>24.4774</RA_OF_ASC_NODE><ARG_OF_PERICENTER>68.0996</ARG_OF_PERICENTER><MEAN_ANOMALY>292.1134</MEAN_ANOMALY></meanElements><tleParameters><EPHEMERIS_TYPE>0</EPHEMERIS_TYPE><CLASSIFICATION_TYPE>U</CLASSIFICATION_TYPE><NORAD_CAT_ID>63732</NORAD_CAT_ID><ELEMENT_SET_NO>999</ELEMENT_SET_NO><REV_AT_EPOCH>1413</REV_AT_EPOCH><BSTAR>-.11805E-1</BSTAR><MEAN_MOTION_DOT>-.201681E-2</MEAN_MOTION_DOT><MEAN_MOTION_DDOT>0</MEAN_MOTION_DDOT></tleParameters></data></segment></body></omm>
<omm id="CCSDS_OMM_VERS" version="2.0">
<header><CREATION_DATE/><ORIGINATOR/></header><body><segment><metadata><OBJECT_NAME>KUIPER-00018</OBJECT_NAME><OBJECT_ID>2025-088K</OBJECT_ID><CENTER_NAME>EARTH</CENTER_NAME><REF_FRAME>TEME</REF_FRAME><TIME_SYSTEM>UTC</TIME_SYSTEM><MEAN_ELEMENT_THEORY>SGP4</MEAN_ELEMENT_THEORY></metadata><data><meanElements><EPOCH>2025-07-29T22:00:01.999584</EPOCH><MEAN_MOTION>15.27218423</MEAN_MOTION><ECCENTRICITY>.0005961</ECCENTRICITY><INCLINATION>51.8746</INCLINATION><RA_OF_ASC_NODE>14.3353</RA_OF_ASC_NODE><ARG_OF_PERICENTER>77.8668</ARG_OF_PERICENTER><MEAN_ANOMALY>333.2528</MEAN_ANOMALY></meanElements><tleParameters><EPHEMERIS_TYPE>0</EPHEMERIS_TYPE><CLASSIFICATION_TYPE>U</CLASSIFICATION_TYPE><NORAD_CAT_ID>63733</NORAD_CAT_ID><ELEMENT_SET_NO>999</ELEMENT_SET_NO><REV_AT_EPOCH>555</REV_AT_EPOCH><BSTAR>-.49809E-1</BSTAR><MEAN_MOTION_DOT>-.123797E-1</MEAN_MOTION_DOT><MEAN_MOTION_DDOT>0</MEAN_MOTION_DDOT></tleParameters></data></segment></body></omm>
<omm id="CCSDS_OMM_VERS" version="2.0">
<header><CREATION_DATE/><ORIGINATOR/></header><body><segment><metadata><OBJECT_NAME>KUIPER-00019</OBJECT_NAME><OBJECT_ID>2025-088L</OBJECT_ID><CENTER_NAME>EARTH</CENTER_NAME><REF_FRAME>TEME</REF_FRAME><TIME_SYSTEM>UTC</TIME_SYSTEM><MEAN_ELEMENT_THEORY>SGP4</MEAN_ELEMENT_THEORY></metadata><data><meanElements><EPOCH>2025-07-29T22:00:01.999584</EPOCH><MEAN_MOTION>15.35342151</MEAN_MOTION><ECCENTRICITY>.0004404</ECCENTRICITY><INCLINATION>51.8702</INCLINATION><RA_OF_ASC_NODE>13.8740</RA_OF_ASC_NODE><ARG_OF_PERICENTER>98.0016</ARG_OF_PERICENTER><MEAN_ANOMALY>164.5468</MEAN_ANOMALY></meanElements><tleParameters><EPHEMERIS_TYPE>0</EPHEMERIS_TYPE><CLASSIFICATION_TYPE>U</CLASSIFICATION_TYPE><NORAD_CAT_ID>63734</NORAD_CAT_ID><ELEMENT_SET_NO>999</ELEMENT_SET_NO><REV_AT_EPOCH>580</REV_AT_EPOCH><BSTAR>-.33515E-1</BSTAR><MEAN_MOTION_DOT>-.107264E-1</MEAN_MOTION_DOT><MEAN_MOTION_DDOT>0</MEAN_MOTION_DDOT></tleParameters></data></segment></body></omm>
<omm id="CCSDS_OMM_VERS" version="2.0">
<header><CREATION_DATE/><ORIGINATOR/></header><body><segment><metadata><OBJECT_NAME>KUIPER-00020</OBJECT_NAME><OBJECT_ID>2025-088M</OBJECT_ID><CENTER_NAME>EARTH</CENTER_NAME><REF_FRAME>TEME</REF_FRAME><TIME_SYSTEM>UTC</TIME_SYSTEM><MEAN_ELEMENT_THEORY>SGP4</MEAN_ELEMENT_THEORY></metadata><data><meanElements><EPOCH>2025-07-29T22:00:01.999584</EPOCH><MEAN_MOTION>15.22549326</MEAN_MOTION><ECCENTRICITY>.0007891</ECCENTRICITY><INCLINATION>51.8805</INCLINATION><RA_OF_ASC_NODE>15.1044</RA_OF_ASC_NODE><ARG_OF_PERICENTER>66.7070</ARG_OF_PERICENTER><MEAN_ANOMALY>295.1777</MEAN_ANOMALY></meanElements><tleParameters><EPHEMERIS_TYPE>0</EPHEMERIS_TYPE><CLASSIFICATION_TYPE>U</CLASSIFICATION_TYPE><NORAD_CAT_ID>63735</NORAD_CAT_ID><ELEMENT_SET_NO>999</ELEMENT_SET_NO><REV_AT_EPOCH>485</REV_AT_EPOCH><BSTAR>-.3102E-1</BSTAR><MEAN_MOTION_DOT>-.676584E-2</MEAN_MOTION_DOT><MEAN_MOTION_DDOT>0</MEAN_MOTION_DDOT></tleParameters></data></segment></body></omm>
<omm id="CCSDS_OMM_VERS" version="2.0">
<header><CREATION_DATE/><ORIGINATOR/></header><body><segment><metadata><OBJECT_NAME>KUIPER-00021</OBJECT_NAME><OBJECT_ID>2025-088N</OBJECT_ID><CENTER_NAME>EARTH</CENTER_NAME><REF_FRAME>TEME</REF_FRAME><TIME_SYSTEM>UTC</TIME_SYSTEM><MEAN_ELEMENT_THEORY>SGP4</MEAN_ELEMENT_THEORY></metadata><data><meanElements><EPOCH>2025-07-29T22:00:01.999584</EPOCH><MEAN_MOTION>15.20177895</MEAN_MOTION><ECCENTRICITY>.0005425</ECCENTRICITY><INCLINATION>51.8727</INCLINATION><RA_OF_ASC_NODE>15.6233</RA_OF_ASC_NODE><ARG_OF_PERICENTER>76.4557</ARG_OF_PERICENTER><MEAN_ANOMALY>62.2939</MEAN_ANOMALY></meanElements><tleParameters><EPHEMERIS_TYPE>0</EPHEMERIS_TYPE><CLASSIFICATION_TYPE>U</CLASSIFICATION_TYPE><NORAD_CAT_ID>63736</NORAD_CAT_ID><ELEMENT_SET_NO>999</ELEMENT_SET_NO><REV_AT_EPOCH>479</REV_AT_EPOCH><BSTAR>-.17987E-1</BSTAR><MEAN_MOTION_DOT>-.375571E-2</MEAN_MOTION_DOT><MEAN_MOTION_DDOT>0</MEAN_MOTION_DDOT></tleParameters></data></segment></body></omm>
<omm id="CCSDS_OMM_VERS" version="2.0">
<header><CREATION_DATE/><ORIGINATOR/></header><body><segment><metadata><OBJECT_NAME>KUIPER-00023</OBJECT_NAME><OBJECT_ID>2025-088P</OBJECT_ID><CENTER_NAME>EARTH</CENTER_NAME><REF_FRAME>TEME</REF_FRAME><TIME_SYSTEM>UTC</TIME_SYSTEM><MEAN_ELEMENT_THEORY>SGP4</MEAN_ELEMENT_THEORY></metadata><data><meanElements><EPOCH>2025-07-29T22:00:01.999584</EPOCH><MEAN_MOTION>15.17479438</MEAN_MOTION><ECCENTRICITY>.0009882</ECCENTRICITY><INCLINATION>51.8793</INCLINATION><RA_OF_ASC_NODE>16.2994</RA_OF_ASC_NODE><ARG_OF_PERICENTER>75.7636</ARG_OF_PERICENTER><MEAN_ANOMALY>101.2567</MEAN_ANOMALY></meanElements><tleParameters><EPHEMERIS_TYPE>0</EPHEMERIS_TYPE><CLASSIFICATION_TYPE>U</CLASSIFICATION_TYPE><NORAD_CAT_ID>63737</NORAD_CAT_ID><ELEMENT_SET_NO>999</ELEMENT_SET_NO><REV_AT_EPOCH>388</REV_AT_EPOCH><BSTAR>.20443E-2</BSTAR><MEAN_MOTION_DOT>.41451E-3</MEAN_MOTION_DOT><MEAN_MOTION_DDOT>0</MEAN_MOTION_DDOT></tleParameters></data></segment></body></omm>
<omm id="CCSDS_OMM_VERS" version="2.0">
<header><CREATION_DATE/><ORIGINATOR/></header><body><segment><metadata><OBJECT_NAME>KUIPER-00024</OBJECT_NAME><OBJECT_ID>2025-088Q</OBJECT_ID><CENTER_NAME>EARTH</CENTER_NAME><REF_FRAME>TEME</REF_FRAME><TIME_SYSTEM>UTC</TIME_SYSTEM><MEAN_ELEMENT_THEORY>SGP4</MEAN_ELEMENT_THEORY></metadata><data><meanElements><EPOCH>2025-07-29T17:35:33.736704</EPOCH><MEAN_MOTION>15.38527708</MEAN_MOTION><ECCENTRICITY>.0001285</ECCENTRICITY><INCLINATION>51.8726</INCLINATION><RA_OF_ASC_NODE>13.9689</RA_OF_ASC_NODE><ARG_OF_PERICENTER>110.5159</ARG_OF_PERICENTER><MEAN_ANOMALY>249.5966</MEAN_ANOMALY></meanElements><tleParameters><EPHEMERIS_TYPE>0</EPHEMERIS_TYPE><CLASSIFICATION_TYPE>U</CLASSIFICATION_TYPE><NORAD_CAT_ID>63738</NORAD_CAT_ID><ELEMENT_SET_NO>999</ELEMENT_SET_NO><REV_AT_EPOCH>1483</REV_AT_EPOCH><BSTAR>.50343E-3</BSTAR><MEAN_MOTION_DOT>.19101E-3</MEAN_MOTION_DOT><MEAN_MOTION_DDOT>0</MEAN_MOTION_DDOT></tleParameters></data></segment></body></omm>
<omm id="CCSDS_OMM_VERS" version="2.0">
<header><CREATION_DATE/><ORIGINATOR/></header><body><segment><metadata><OBJECT_NAME>KUIPER-00025</OBJECT_NAME><OBJECT_ID>2025-088R</OBJECT_ID><CENTER_NAME>EARTH</CENTER_NAME><REF_FRAME>TEME</REF_FRAME><TIME_SYSTEM>UTC</TIME_SYSTEM><MEAN_ELEMENT_THEORY>SGP4</MEAN_ELEMENT_THEORY></metadata><data><meanElements><EPOCH>2025-07-29T22:00:01.999584</EPOCH><MEAN_MOTION>15.26781108</MEAN_MOTION><ECCENTRICITY>.0008658</ECCENTRICITY><INCLINATION>51.8748</INCLINATION><RA_OF_ASC_NODE>14.4048</RA_OF_ASC_NODE><ARG_OF_PERICENTER>59.8229</ARG_OF_PERICENTER><MEAN_ANOMALY>280.2567</MEAN_ANOMALY></meanElements><tleParameters><EPHEMERIS_TYPE>0</EPHEMERIS_TYPE><CLASSIFICATION_TYPE>U</CLASSIFICATION_TYPE><NORAD_CAT_ID>63739</NORAD_CAT_ID><ELEMENT_SET_NO>999</ELEMENT_SET_NO><REV_AT_EPOCH>586</REV_AT_EPOCH><BSTAR>-.38744E-1</BSTAR><MEAN_MOTION_DOT>-.958513E-2</MEAN_MOTION_DOT><MEAN_MOTION_DDOT>0</MEAN_MOTION_DDOT></tleParameters></data></segment></body></omm>

</ndm>
